#dP2021  2  4  0  0  0.00000000      96 __u+U ITR00 FIT  IAC
## 2143 345600.00000000   900.00000000 59249 0.0000000000000
+  126   C01C02C03C04C05C06C07C08C09C10C11C12C13C14C16C19C20
+        C21C22C23C24C25C26C27C28C29C30C32C33C34C35C36C37C38
+        C39C40C41C42C43C44C45C46C60E01E02E03E04E05E07E08E09
+        E11E12E13E14E15E18E19E21E24E25E26E27E30E31E33E36G01
+        G02G03G04G05G06G07G08G09G10G11G12G13G14G15G16G17G18
+        G19G20G21G22G23G24G25G26G27G28G29G30G31G32J01J02J03
+        J07R01R02R03R04R05R06R07R08R10R11R12R13R14R15R16R17
+        R18R19R20R21R22R23R24  0  0  0  0  0  0  0  0  0  0
++        13 13 13 13 13  8  8  9  8  8  8  8  8  8  8  8  8
++         8  8  8  8  8  8  8  8  8  8  8  8  8  8  9  8  9
++         9  9  9  9  9  9  9  8  0  4  4  4  5  4  4  4  5
++         5  5  5  4  5  5  4  4  4  4  4  5  5  5  4  5  3
++         4  4  4  4  4  4  4  4  3  4  4  4  4  4  4  4  4
++         4  4  4  4  4  3  4  4  4  4  4  4  4  3  9  8  8
++        15  7  6  6  5  5 13  5  6 13  8  6  6  6  6  6  6
++         6  6  6  6  7 13  6  0  0  0  0  0  0  0  0  0  0
%c M  cc GPS ccc cccc cccc cccc cccc ccccc ccccc ccccc ccccc
%c cc cc ccc ccc cccc cccc cccc cccc ccccc ccccc ccccc ccccc
%f  0.0000000  0.000000000  0.00000000000  0.000000000000000
%f  0.0000000  0.000000000  0.00000000000  0.000000000000000
%i    0    0    0    0      0      0      0      0         0
%i    0    0    0    0      0      0      0      0         0
/* INFORMATION & ANALYSIS CENTER (IAC)            RAPID DATA
/* S/V CLOCKS ARE ALIGNED TO GNSS TIME                      
/* G:C1WC2W R:C1PC2P E:C1XC5X C:C2IC6I J:C1CC2S             
/* PCV:IGS14_2134 OL/AL:FES2004  NONE     YN ORB:CoN CLK:CoN
*  2021 02 04 19  0  0.00000000
PC01 -34319.624677  24446.668199   -321.022506   -742.636772
PC02   4404.849044  41958.781458   1054.405454    539.361581
PC03 -14842.405116  39445.819326   1439.071464   -478.916618
PC04 -39620.905385  14371.796691    155.181485   -318.448394
PC05  21911.214809  36023.912134   1067.886771   -690.362774
PC06 -19663.483346  37433.388825  -3069.244000     62.905604
PC07  -7795.075448  29484.227880 -28657.084163   -294.171133
PC08 -19861.470898  19046.321087  31924.851859   -920.091091
PC09 -10054.710354  37416.181306 -16859.866278    756.109100
PC10   4224.204880  35864.397535 -21199.579648    -92.053014
PC11 -11670.951644  -9846.762610 -23289.757664   -933.596723
PC12   3951.537482 -22070.686946 -16583.654444    775.548671
PC13  -2828.908874  22821.953998  35433.469724    127.512429
PC14 -16079.517415 -20120.192668  10830.258432     59.721529
PC16 -18508.979207  37779.076299  -4144.896492   -683.587585
PC19  17956.689400  11436.198837 -18011.616597    715.969310
PC20  12270.308470  24836.760065  -3240.055159   -912.655621
PC21   1046.365841 -24031.489948 -14145.196452   -823.057827
PC22  13393.932154  -9015.273636 -22761.098469   -867.880261
PC23 -23710.489357   5949.555510 -13452.799421   -877.102892
PC24 -13723.986470 -15635.740654  18570.810187   -753.876995
PC25 -27098.024471  -5842.471801   3088.659985   -921.809758
PC26   5713.762975 -15438.413340  22526.929661    953.168459
PC27 -11837.866542  23740.981917   8679.246469    477.888422
PC28 -21123.903693  15889.714107  -8936.247410   -113.454156
PC29  18068.030102    571.333696  21254.917975    347.956111
PC30   4635.834212  17831.746446  20966.252611    440.468507
PC32   -920.862321  24017.317782  14189.398287   -890.161995
PC33 -18053.520573 -11420.102848  17967.055454   -949.849122
PC34  -5239.321803 -17360.445083 -21207.717403   -747.466222
PC35  20632.347948 -16356.926123   9191.294437   -433.349645
PC36  26887.360155   6668.361634  -3386.298493   -762.169692
PC37  -6937.711168  15083.551193 -22415.240935   -862.767804
PC38 -17699.446629  21870.939975  31394.963402    128.065450
PC39 -15221.167839  39072.767803  -5038.831020     28.132874
PC40    -86.411076  33349.360646 -25702.514773    128.241510
PC41 -13563.742585   8786.059256  22797.102836   -931.004274
PC42 -11971.917680 -25077.994328   2652.569768   -844.924301
PC43 -17951.761761  -1164.003523 -21341.934960   -583.104012
PC44  11116.385024 -24127.578513  -8489.131368     21.937899
PC45  23676.110317  -5962.210222  13538.481980    353.508771
PC46  14680.951994  15310.582265 -18154.112201    420.451709
PC60      0.000000      0.000000      0.000000 999999.999999
PE01  22429.339161  18987.163844  -3614.421985  -1039.247203
PE02 -22472.319330 -18923.952786   3501.995754    196.041773
PE03 -11757.251536 -19351.628104  19065.141186   -394.987471
PE04  17228.120745  -1806.906427 -24000.747663   -703.045648
PE05    692.251523 -29452.381173   2870.661036   -307.247516
PE07 -12621.033779  22278.257438  14846.352920   -496.620563
PE08 -17081.014297   2256.509512  24065.357024   6051.836784
PE09  12341.062859 -22483.752741 -14788.205132   5776.272250
PE11  22407.340086 -17083.970905  -9038.396308   6368.464380
PE12  27205.727708  -5265.943390  10388.550942   5372.420208
PE13 -22624.566280  17004.530423   8693.766306    411.500861
PE14 -19968.720803  -4678.884647 -24695.840368  -1318.599860
PE15 -27191.705065   5455.438774 -10338.934679    830.918462
PE18  17086.794128  -6499.429806  16275.345468  -1441.335938
PE19  10472.335846  21272.871438 -17721.818944    195.626162
PE21   7310.846052  21157.062318 -19377.536763   -646.649782
PE24  13264.643462 -10619.390630  24226.656767   -726.217451
PE25  -7113.373626 -21109.044953  19489.726593   -525.755549
PE26  -4023.472256  18495.101787  22769.325295   2185.968760
PE27 -12571.884043  11161.794516 -24360.260519     36.743761
PE30 -25140.069008  -6061.522008 -14391.128045   3207.551031
PE31  24962.063965   5341.895167  14998.902865   -477.986893
PE33  15739.424780   9311.555376  23285.902054   -465.423087
PE36   4773.211576 -18531.286017 -22568.784769    445.023686
PG01  -3610.468133 -14404.526501 -22265.637071    767.674724
PG02 -18853.845773  14616.917670  12352.877871   -573.417330
PG03 -11266.809668 -22138.800481  -9623.380417    -74.314753
PG04   -238.412043 -23835.047566  11663.983583   -177.892909
PG05  -5635.875837  15265.708541  20808.747803    -32.815801
PG06 -25977.169934   5669.093555    -71.111485     -3.654389
PG07 -18952.969329  -8491.218517  17158.811574     47.006561
PG08   4198.214934 -25623.796405  -4773.068488     -9.089835
PG09  -9666.003924 -15446.575731  19252.325066   -319.746680
PG10  20787.551803   7608.797306 -14764.846824    -54.370134
PG11   3874.206909 -20491.217469 -17099.607225    -33.809434
PG12   6454.801738  22426.104619 -13070.469671      3.440842
PG13 -13290.920139  22609.088910   3622.553478     93.512546
PG14 -20594.607409  -9619.328162 -13756.309059     94.116167
PG15   -940.087041  25860.411277  -5412.447199   -171.644566
PG16   8304.104840 -12963.474498  21342.554518   -275.231733
PG17 -15791.877274   2540.814558 -20769.792465    388.963502
PG18  20840.059290   6543.061149  15147.081627    345.611980
PG19 -17294.476847  10110.787510 -17674.401965    -42.825969
PG20  21945.305362  14861.701242  -3350.153425    524.848942
PG21   5281.919709 -16052.123807 -19649.439084     92.786837
PG22  -4737.784034 -20432.195786 -16192.873833   -685.604725
PG23  20635.502439  15783.415069  -5644.476694    117.994469
PG24  -1223.790631  16480.509750 -20968.480742      2.782208
PG25  17491.554390  20175.343687  -1050.120202     73.846442
PG26  16426.669400  -4450.844175  20402.135424     40.110259
PG27  12356.522587 -21941.555540   7680.086755    -69.846992
PG28 -19329.206804  -7797.656990 -15787.820246    620.192131
PG29   7548.189672  16218.216983  19579.482882   -288.845642
PG30 -25576.773295   -773.322932   7584.706883   -379.712474
PG31  25826.863997  -6766.065467   2439.529533    -98.094625
PG32  16301.338740  -4002.997862 -20449.862832     17.492944
PJ01 -26013.356884  25026.171433  26787.657074   -339.207458
PJ02 -26959.545402  14727.687410 -24398.972866      1.466370
PJ03 -26246.608665  32599.877501   -250.041350     -0.464045
PJ07 -25375.398288  33686.576334     -2.359374      0.056486
PR01 -11633.397229 -14694.856557  17308.691634     74.496348
PR02  -9369.238614   7697.006698  22488.497803    465.693841
PR03  -1734.074602  22296.153308  12360.302493     30.313644
PR04   6768.136941  24157.871207  -4611.659755     72.780438
PR05  11413.380818  12597.375085 -19020.187561     65.951151
PR06   9019.459726  -8894.491844 -22147.561375    192.190601
PR07   1397.257123 -22567.579730 -11727.923912    -42.337091
PR08  -6864.288576 -24101.151175   4755.561231    -57.219788
PR10   5609.512786  -9658.208589  22923.754853    -66.120755
PR11 -13333.099454 -13038.401419  17414.264590      3.713837
PR12 -23890.021919  -8819.014351   1209.982194    202.320444
PR13 -20477.801288    841.680695 -15202.123993    -50.268820
PR14  -4636.745635  10108.044280 -22949.646743     60.632385
PR15  13456.878576  13306.914664 -17092.258371    105.573807
PR16  24322.050622   7921.114105   -309.430548    -10.937555
PR17 -14524.998356  18421.194059   9990.373167    397.240937
PR18   -966.242492  13557.545797  21618.863210     65.526516
PR19  12677.246877   2349.514352  22015.954974   -130.702558
PR20  20876.877027 -12145.080317   8147.966110   -432.654792
PR21  13904.252395 -18344.593818 -11010.429342   -185.324785
PR22    -91.725772 -12789.618369 -22057.412852    -96.148435
PR23 -17231.987003   3709.185577 -18440.650665    363.923082
PR24 -20830.047646  12750.608579  -7322.356146     30.319087
EOF
